start=new Date('2023-04-18T00:00:00.000Z').valueOf();
sats=[{"ARG_OF_PERICENTER":"72.8923","REV_AT_EPOCH":"12428","MEAN_MOTION_DDOT":"0.0000000000000","EPOCH":"2023-04-17T16:02:24.251136","INCLINATION":"53.0520","LAUNCH_DATE":"2021-01-20","PERIOD":"95.592","RCS_SIZE":"LARGE","ELEMENT_SET_NO":"999","CLASSIFICATION_TYPE":"U","SEMIMAJOR_AXIS":"6925.365","EPHEMERIS_TYPE":"0","MEAN_MOTION":"15.06394516","TLE_LINE2":"2 47379  53.0520  86.7691 0002485  72.8923 287.2338 15.06394516124284","APOAPSIS":"548.951","CENTER_NAME":"EARTH","TLE_LINE1":"1 47379U 21005AG  23107.66833624  .00009312  00000-0  64331-3 0  9994","MEAN_MOTION_DOT":"0.00009312","DECAY_DATE":null,"RA_OF_ASC_NODE":"86.7691","NORAD_CAT_ID":"47379","REF_FRAME":"TEME","OBJECT_TYPE":"PAYLOAD","SITE":"AFETR","FILE":"3889391","GP_ID":"230262415","OBJECT_NAME":"STARLINK-2099","ECCENTRICITY":"0.00024850","PERIAPSIS":"545.509","MEAN_ANOMALY":"287.2338","BSTAR":"0.00064331000000","OBJECT_ID":"2021-005AG","MEAN_ELEMENT_THEORY":"SGP4","COUNTRY_CODE":"US","TIME_SYSTEM":"UTC"},{"OBJECT_ID":"2021-005AH","BSTAR":"0.00070707000000","COUNTRY_CODE":"US","TIME_SYSTEM":"UTC","MEAN_ELEMENT_THEORY":"SGP4","PERIAPSIS":"546.081","ECCENTRICITY":"0.00015990","MEAN_ANOMALY":"254.8655","OBJECT_TYPE":"PAYLOAD","SITE":"AFETR","REF_FRAME":"TEME","NORAD_CAT_ID":"47380","OBJECT_NAME":"STARLINK-2100","FILE":"3889391","GP_ID":"230260665","DECAY_DATE":null,"RA_OF_ASC_NODE":"95.7454","TLE_LINE1":"1 47380U 21005AH  23107.89593710  .00010268  00000-0  70707-3 0  9996","MEAN_MOTION_DOT":"0.00010268","APOAPSIS":"548.296","TLE_LINE2":"2 47380  53.0525  95.7454 0001599 105.2510 254.8655 15.06408138124183","MEAN_MOTION":"15.06408138","CENTER_NAME":"EARTH","CLASSIFICATION_TYPE":"U","ELEMENT_SET_NO":"999","EPHEMERIS_TYPE":"0","SEMIMAJOR_AXIS":"6925.324","LAUNCH_DATE":"2021-01-20","INCLINATION":"53.0525","EPOCH":"2023-04-17T21:30:08.965440","MEAN_MOTION_DDOT":"0.0000000000000","REV_AT_EPOCH":"12418","ARG_OF_PERICENTER":"105.2510","RCS_SIZE":"LARGE","PERIOD":"95.592"},{"OBJECT_NAME":"STARLINK-2101","GP_ID":"230260915","FILE":"3889391","SITE":"AFETR","OBJECT_TYPE":"PAYLOAD","NORAD_CAT_ID":"47381","REF_FRAME":"TEME","DECAY_DATE":null,"RA_OF_ASC_NODE":"101.6591","MEAN_ELEMENT_THEORY":"SGP4","COUNTRY_CODE":"US","TIME_SYSTEM":"UTC","BSTAR":"0.00085682000000","OBJECT_ID":"2021-005AJ","MEAN_ANOMALY":"268.5157","PERIAPSIS":"546.191","ECCENTRICITY":"0.00014310","SEMIMAJOR_AXIS":"6925.317","EPHEMERIS_TYPE":"0","CLASSIFICATION_TYPE":"U","ELEMENT_SET_NO":"999","RCS_SIZE":"LARGE","PERIOD":"95.591","MEAN_MOTION_DDOT":"0.0000000000000","EPOCH":"2023-04-17T17:06:46.187712","LAUNCH_DATE":"2021-01-20","INCLINATION":"53.0535","REV_AT_EPOCH":"12408","ARG_OF_PERICENTER":"91.5996","MEAN_MOTION_DOT":"0.00012507","TLE_LINE1":"1 47381U 21005AJ  23107.71303458  .00012507  00000-0  85682-3 0  9992","CENTER_NAME":"EARTH","TLE_LINE2":"2 47381  53.0535 101.6591 0001431  91.5996 268.5157 15.06410353124084","APOAPSIS":"548.173","MEAN_MOTION":"15.06410353"},{"SEMIMAJOR_AXIS":"6925.315","EPHEMERIS_TYPE":"0","ELEMENT_SET_NO":"999","CLASSIFICATION_TYPE":"U","PERIOD":"95.591","RCS_SIZE":"LARGE","ARG_OF_PERICENTER":"72.4884","REV_AT_EPOCH":"12414","EPOCH":"2023-04-17T16:32:55.523328","MEAN_MOTION_DDOT":"0.0000000000000","LAUNCH_DATE":"2021-01-20","INCLINATION":"53.0542","MEAN_MOTION_DOT":"0.00006708","TLE_LINE1":"1 47382U 21005AK  23107.68953152  .00006708  00000-0  46863-3 0  9995","CENTER_NAME":"EARTH","MEAN_MOTION":"15.06410984","TLE_LINE2":"2 47382  53.0542  96.6732 0001547  72.4884 287.6274 15.06410984124144","APOAPSIS":"548.251","GP_ID":"230262167","FILE":"3889391","OBJECT_NAME":"STARLINK-2102","NORAD_CAT_ID":"47382","REF_FRAME":"TEME","SITE":"AFETR","OBJECT_TYPE":"PAYLOAD","RA_OF_ASC_NODE":"96.6732","DECAY_DATE":null,"MEAN_ELEMENT_THEORY":"SGP4","TIME_SYSTEM":"UTC","COUNTRY_CODE":"US","BSTAR":"0.00046863000000","OBJECT_ID":"2021-005AK","MEAN_ANOMALY":"287.6274","ECCENTRICITY":"0.00015470","PERIAPSIS":"546.109"},{"OBJECT_ID":"2021-005AL","BSTAR":"0.00009114200000","COUNTRY_CODE":"US","TIME_SYSTEM":"UTC","MEAN_ELEMENT_THEORY":"SGP4","PERIAPSIS":"545.669","ECCENTRICITY":"0.00022510","MEAN_ANOMALY":"283.4561","REF_FRAME":"TEME","NORAD_CAT_ID":"47383","OBJECT_TYPE":"PAYLOAD","SITE":"AFETR","FILE":"3889391","GP_ID":"230261916","OBJECT_NAME":"STARLINK-2103","RA_OF_ASC_NODE":"85.6985","DECAY_DATE":null,"TLE_LINE1":"1 47383U 21005AL  23107.90697656  .00001076  00000-0  91142-4 0  9999","MEAN_MOTION_DOT":"0.00001076","MEAN_MOTION":"15.06395350","APOAPSIS":"548.787","TLE_LINE2":"2 47383  53.0530  85.6985 0002251  76.6679 283.4561 15.06395350124323","CENTER_NAME":"EARTH","ELEMENT_SET_NO":"999","CLASSIFICATION_TYPE":"U","EPHEMERIS_TYPE":"0","SEMIMAJOR_AXIS":"6925.363","ARG_OF_PERICENTER":"76.6679","REV_AT_EPOCH":"12432","INCLINATION":"53.0530","LAUNCH_DATE":"2021-01-20","MEAN_MOTION_DDOT":"0.0000000000000","EPOCH":"2023-04-17T21:46:02.774784","PERIOD":"95.592","RCS_SIZE":"LARGE"},{"MEAN_MOTION_DOT":"0.00005460","TLE_LINE1":"1 47384U 21005AM  23107.67480709  .00005460  00000-0  38518-3 0  9991","CENTER_NAME":"EARTH","MEAN_MOTION":"15.06397566","TLE_LINE2":"2 47384  53.0555  96.9829 0001328 104.3542 255.7594 15.06397566124144","APOAPSIS":"548.141","EPHEMERIS_TYPE":"0","SEMIMAJOR_AXIS":"6925.356","ELEMENT_SET_NO":"999","CLASSIFICATION_TYPE":"U","RCS_SIZE":"LARGE","PERIOD":"95.592","REV_AT_EPOCH":"12414","ARG_OF_PERICENTER":"104.3542","LAUNCH_DATE":"2021-01-20","INCLINATION":"53.0555","MEAN_MOTION_DDOT":"0.0000000000000","EPOCH":"2023-04-17T16:11:43.332576","COUNTRY_CODE":"US","TIME_SYSTEM":"UTC","MEAN_ELEMENT_THEORY":"SGP4","OBJECT_ID":"2021-005AM","BSTAR":"0.00038518000000","MEAN_ANOMALY":"255.7594","PERIAPSIS":"546.301","ECCENTRICITY":"0.00013280","GP_ID":"230261166","FILE":"3889391","OBJECT_NAME":"STARLINK-2104","REF_FRAME":"TEME","NORAD_CAT_ID":"47384","SITE":"AFETR","OBJECT_TYPE":"PAYLOAD","DECAY_DATE":null,"RA_OF_ASC_NODE":"96.9829"},{"MEAN_MOTION_DOT":"0.00007218","TLE_LINE1":"1 47385U 21005AN  23107.67109258  .00007218  00000-0  50302-3 0  9997","CENTER_NAME":"EARTH","MEAN_MOTION":"15.06397780","APOAPSIS":"548.052","TLE_LINE2":"2 47385  53.0533  96.7623 0001201 101.5314 258.5810 15.06397780124147","EPHEMERIS_TYPE":"0","SEMIMAJOR_AXIS":"6925.355","ELEMENT_SET_NO":"999","CLASSIFICATION_TYPE":"U","PERIOD":"95.592","RCS_SIZE":"LARGE","REV_AT_EPOCH":"12414","ARG_OF_PERICENTER":"101.5314","INCLINATION":"53.0533","LAUNCH_DATE":"2021-01-20","MEAN_MOTION_DDOT":"0.0000000000000","EPOCH":"2023-04-17T16:06:22.398912","TIME_SYSTEM":"UTC","COUNTRY_CODE":"US","MEAN_ELEMENT_THEORY":"SGP4","OBJECT_ID":"2021-005AN","BSTAR":"0.00050302000000","MEAN_ANOMALY":"258.5810","ECCENTRICITY":"0.00012010","PERIAPSIS":"546.389","GP_ID":"230261416","FILE":"3889391","OBJECT_NAME":"STARLINK-2105","REF_FRAME":"TEME","NORAD_CAT_ID":"47385","OBJECT_TYPE":"PAYLOAD","SITE":"AFETR","DECAY_DATE":null,"RA_OF_ASC_NODE":"96.7623"},{"LAUNCH_DATE":"2021-01-20","INCLINATION":"53.0519","MEAN_MOTION_DDOT":"0.0000000000000","EPOCH":"2023-04-17T19:59:55.174272","REV_AT_EPOCH":"12417","ARG_OF_PERICENTER":"76.1833","RCS_SIZE":"LARGE","PERIOD":"95.593","CLASSIFICATION_TYPE":"U","ELEMENT_SET_NO":"999","EPHEMERIS_TYPE":"0","SEMIMAJOR_AXIS":"6925.394","APOAPSIS":"548.285","TLE_LINE2":"2 47386  53.0519  96.0281 0001481  76.1833 283.9320 15.06385159124176","MEAN_MOTION":"15.06385159","CENTER_NAME":"EARTH","TLE_LINE1":"1 47386U 21005AP  23107.83327748 -.00006083  00000-0 -38997-3 0  9999","MEAN_MOTION_DOT":"-0.00006083","DECAY_DATE":null,"RA_OF_ASC_NODE":"96.0281","SITE":"AFETR","OBJECT_TYPE":"PAYLOAD","REF_FRAME":"TEME","NORAD_CAT_ID":"47386","OBJECT_NAME":"STARLINK-2106","GP_ID":"230261667","FILE":"3889391","PERIAPSIS":"546.233","ECCENTRICITY":"0.00014810","MEAN_ANOMALY":"283.9320","OBJECT_ID":"2021-005AP","BSTAR":"-0.00038997000000","COUNTRY_CODE":"US","TIME_SYSTEM":"UTC","MEAN_ELEMENT_THEORY":"SGP4"},{"INCLINATION":"53.0522","LAUNCH_DATE":"2021-01-20","EPOCH":"2023-04-17T11:42:18.458496","MEAN_MOTION_DDOT":"0.0000000000000","ARG_OF_PERICENTER":"109.8198","REV_AT_EPOCH":"12369","RCS_SIZE":"LARGE","PERIOD":"95.592","CLASSIFICATION_TYPE":"U","ELEMENT_SET_NO":"999","EPHEMERIS_TYPE":"0","SEMIMAJOR_AXIS":"6925.364","TLE_LINE2":"2 47387  53.0522 127.5798 0001445 109.8198 250.2946 15.06394973123693","APOAPSIS":"548.230","MEAN_MOTION":"15.06394973","CENTER_NAME":"EARTH","TLE_LINE1":"1 47387U 21005AQ  23107.48771364  .00013941  00000-0  95306-3 0  9994","MEAN_MOTION_DOT":"0.00013941","DECAY_DATE":null,"RA_OF_ASC_NODE":"127.5798","SITE":"AFETR","OBJECT_TYPE":"PAYLOAD","REF_FRAME":"TEME","NORAD_CAT_ID":"47387","OBJECT_NAME":"STARLINK-2108","GP_ID":"230231276","FILE":"3889215","ECCENTRICITY":"0.00014450","PERIAPSIS":"546.228","MEAN_ANOMALY":"250.2946","OBJECT_ID":"2021-005AQ","BSTAR":"0.00095306000000","TIME_SYSTEM":"UTC","COUNTRY_CODE":"US","MEAN_ELEMENT_THEORY":"SGP4"},{"MEAN_MOTION_DDOT":"0.0000000000000","EPOCH":"2023-04-17T18:25:41.913408","LAUNCH_DATE":"2021-01-20","INCLINATION":"53.0529","ARG_OF_PERICENTER":"90.3139","REV_AT_EPOCH":"12373","PERIOD":"95.592","RCS_SIZE":"LARGE","CLASSIFICATION_TYPE":"U","ELEMENT_SET_NO":"999","SEMIMAJOR_AXIS":"6925.355","EPHEMERIS_TYPE":"0","TLE_LINE2":"2 47388  53.0529 126.3272 0001726  90.3139 269.8048 15.06397986123737","APOAPSIS":"548.415","MEAN_MOTION":"15.06397986","CENTER_NAME":"EARTH","TLE_LINE1":"1 47388U 21005AR  23107.76784622  .00001806  00000-0  14014-3 0  9991","MEAN_MOTION_DOT":"0.00001806","DECAY_DATE":null,"RA_OF_ASC_NODE":"126.3272","OBJECT_TYPE":"PAYLOAD","SITE":"AFETR","NORAD_CAT_ID":"47388","REF_FRAME":"TEME","OBJECT_NAME":"STARLINK-2109","GP_ID":"230260666","FILE":"3889391","ECCENTRICITY":"0.00017260","PERIAPSIS":"546.024","MEAN_ANOMALY":"269.8048","BSTAR":"0.00014014000000","OBJECT_ID":"2021-005AR","MEAN_ELEMENT_THEORY":"SGP4","TIME_SYSTEM":"UTC","COUNTRY_CODE":"US"}];
